*******************************************************************************
Ephemeris / WWW_USER Mon Mar 26 22:11:24 2018 Pasadena, USA      / Horizons    
*******************************************************************************
Target body name: Tethys (603)                    {source: sat389}
Center body name: Solar System Barycenter (0)     {source: DE431mx}
Center-site name: BODY CENTER
*******************************************************************************
Start time      : A.D. 2000-Jan-01 00:00:00.0000 TDB
Stop  time      : A.D. 2005-Jan-01 00:00:00.0000 TDB
Step-size       : 7200 minutes
*******************************************************************************
Center geodetic : 0.00000000,0.00000000,0.0000000 {E-lon(deg),Lat(deg),Alt(km)}
Center cylindric: 0.00000000,0.00000000,0.0000000 {E-lon(deg),Dxy(km),Dz(km)}
Center radii    : (undefined)                                                  
Output units    : AU-D                                                         
Output type     : GEOMETRIC cartesian states
Output format   : 2 (position and velocity)
Reference frame : ICRF/J2000.0                                                 
Coordinate systm: Ecliptic and Mean Equinox of Reference Epoch                 
*******************************************************************************
JDTDB
   X     Y     Z
   VX    VY    VZ
*******************************************************************************
$$SOE
2451544.500000000 = A.D. 2000-Jan-01 00:00:00.0000 TDB 
   6.399968607689641E+00  6.564126251470815E+00 -3.682003560337539E-01
   1.141969282109386E-04 -6.287529785728375E-04  1.902537209704545E-03
2451549.500000000 = A.D. 2000-Jan-06 00:00:00.0000 TDB 
   6.379756315742180E+00  6.586401647280904E+00 -3.692699985781197E-01
  -1.079180520125487E-02  3.549727699915445E-03  9.580968865511881E-04
2451554.500000000 = A.D. 2000-Jan-11 00:00:00.0000 TDB 
   6.360120880836886E+00  6.602998765293711E+00 -3.675789957138609E-01
  -9.844628467714938E-04  8.755904840137224E-03 -2.711329605006549E-03
2451559.500000000 = A.D. 2000-Jan-16 00:00:00.0000 TDB 
   6.335047325477180E+00  6.622621442880399E+00 -3.668666071799948E-01
  -1.786508500916506E-03 -1.658649055041678E-03  2.602397551849197E-03
2451564.500000000 = A.D. 2000-Jan-21 00:00:00.0000 TDB 
   6.315675498474420E+00  6.644120539343201E+00 -3.677364926403235E-01
  -1.067888236365170E-02  5.485720067787518E-03 -5.399397804219659E-05
2451569.500000000 = A.D. 2000-Jan-26 00:00:00.0000 TDB 
   6.294762293126972E+00  6.660159700528971E+00 -3.657347162106439E-01
   6.652877214194999E-04  7.360073379781632E-03 -2.198952885181597E-03
2451574.500000000 = A.D. 2000-Jan-31 00:00:00.0000 TDB 
   6.269786452328513E+00  6.680612920579820E+00 -3.655577872938540E-01
  -3.977842771381873E-03 -2.057410405532968E-03  3.011251404955519E-03
2451579.500000000 = A.D. 2000-Feb-05 00:00:00.0000 TDB 
   6.250995774976635E+00  6.701070232876931E+00 -3.660669393478775E-01
  -9.834538419228206E-03  7.232498512831490E-03 -1.045563942180945E-03
2451584.500000000 = A.D. 2000-Feb-10 00:00:00.0000 TDB 
   6.228715629927322E+00  6.716905506751715E+00 -3.639259842498219E-01
   1.738388099815949E-03  5.558984853368362E-03 -1.421395684085234E-03
2451589.500000000 = A.D. 2000-Feb-15 00:00:00.0000 TDB 
   6.204207878792768E+00  6.738029267183320E+00 -3.642420802573674E-01
  -6.214696288643374E-03 -1.782954233987018E-03  3.082578634013639E-03
2451594.500000000 = A.D. 2000-Feb-20 00:00:00.0000 TDB 
   6.185651038308590E+00  6.757275357987695E+00 -3.642695724219239E-01
  -8.361334213110427E-03  8.585021592886937E-03 -1.901479877126472E-03
2451599.500000000 = A.D. 2000-Feb-25 00:00:00.0000 TDB 
   6.162051281524556E+00  6.773261105351888E+00 -3.621750727346671E-01
   2.107051705914091E-03  3.552316883619382E-03 -4.675834268495809E-04
2451604.500000000 = A.D. 2000-Mar-01 00:00:00.0000 TDB 
   6.138308886333089E+00  6.794796396245727E+00 -3.628837833406993E-01
  -8.242135360605141E-03 -8.724971484653161E-04  2.809492082969638E-03
2451609.500000000 = A.D. 2000-Mar-06 00:00:00.0000 TDB 
   6.119590708123595E+00  6.812780062211436E+00 -3.623641624235669E-01
  -6.432701282481126E-03  9.381810689044324E-03 -2.521792131022397E-03
2451614.500000000 = A.D. 2000-Mar-11 00:00:00.0000 TDB 
   6.094849407336272E+00  6.829231382614451E+00 -3.604949452689416E-01
   1.726693541146965E-03  1.566600689466606E-03  5.514449326005366E-04
2451619.500000000 = A.D. 2000-Mar-16 00:00:00.0000 TDB 
   6.072060459095362E+00  6.850848937295731E+00 -3.614490014132212E-01
  -9.830783422825319E-03  5.669748719874162E-04  2.223411934723346E-03
2451624.500000000 = A.D. 2000-Mar-21 00:00:00.0000 TDB 
   6.052784217662548E+00  6.867639943043137E+00 -3.603783676643671E-01
  -4.273656014359025E-03  9.529103873069706E-03 -2.836024887582289E-03
2451629.500000000 = A.D. 2000-Mar-26 00:00:00.0000 TDB 
   6.027191377078126E+00  6.884796191015693E+00 -3.588858888876276E-01
   6.358029658832355E-04 -1.737375605158518E-04  1.517396824229057E-03
2451634.500000000 = A.D. 2000-Mar-31 00:00:00.0000 TDB 
   6.005414096102388E+00  6.906135379539103E+00 -3.599089973584822E-01
  -1.080241138306923E-02  2.365088114034321E-03  1.393333472821927E-03
2451639.500000000 = A.D. 2000-Apr-05 00:00:00.0000 TDB 
   5.985226467455897E+00  6.921919536966106E+00 -3.583469432862531E-01
  -2.139743409494153E-03  9.004952347194123E-03 -2.807432048483282E-03
2451644.500000000 = A.D. 2000-Apr-10 00:00:00.0000 TDB 
   5.959148394163432E+00  6.939915677904966E+00 -3.573370646727880E-01
  -1.045038712486073E-03 -1.475728786103582E-03  2.319894156731870E-03
2451649.500000000 = A.D. 2000-Apr-15 00:00:00.0000 TDB 
   5.938304681294950E+00  6.960623860244112E+00 -3.582434120350125E-01
  -1.104865752719552E-02  4.310318291883193E-03  4.162358187055059E-04
2451654.500000000 = A.D. 2000-Apr-20 00:00:00.0000 TDB 
   5.916938077768006E+00  6.975678115257323E+00 -3.563044909973671E-01
  -2.771455721580542E-04  7.863712922801526E-03 -2.439256263366174E-03
2451659.500000000 = A.D. 2000-Apr-25 00:00:00.0000 TDB 
   5.890778102844066E+00  6.994530674501338E+00 -3.558263706638527E-01
  -3.124471834136443E-03 -2.193436388290065E-03  2.865635373705384E-03
2451664.500000000 = A.D. 2000-Apr-30 00:00:00.0000 TDB 
   5.870662269782414E+00  7.014305959588587E+00 -3.564433376850126E-01
  -1.054419891165251E-02  6.174813774880964E-03 -5.943013545936885E-04
2451669.500000000 = A.D. 2000-May-05 00:00:00.0000 TDB 
   5.847964004041704E+00  7.028968779062730E+00 -3.542847708285450E-01
   1.094898037751582E-03  6.234296216120542E-03 -1.775515519036813E-03
2451674.500000000 = A.D. 2000-May-10 00:00:00.0000 TDB 
   5.822114094191055E+00  7.048572556296321E+00 -3.543244223232231E-01
  -5.370232598874924E-03 -2.248564968474166E-03  3.091893067024709E-03
2451679.500000000 = A.D. 2000-May-15 00:00:00.0000 TDB 
   5.802417657026833E+00  7.067195216245818E+00 -3.545111293416019E-01
  -9.352735475841572E-03  7.741040452053124E-03 -1.521246620545381E-03
2451684.500000000 = A.D. 2000-May-20 00:00:00.0000 TDB 
   5.778369160624884E+00  7.081826682243009E+00 -3.523142894295204E-01
   1.814193466047960E-03  4.297380262557068E-03 -8.923303195704336E-04
2451689.500000000 = A.D. 2000-May-25 00:00:00.0000 TDB 
   5.753166624112041E+00  7.101967339506499E+00 -3.527967901998061E-01
  -7.526720177399537E-03 -1.640709911078893E-03  2.973460272733459E-03
2451694.500000000 = A.D. 2000-May-30 00:00:00.0000 TDB 
   5.733511896334891E+00  7.119328066917754E+00 -3.524618208764962E-01
  -7.615329300535935E-03  8.822328125484249E-03 -2.255796771604041E-03
2451699.500000000 = A.D. 2000-Jun-04 00:00:00.0000 TDB 
   5.708229956386388E+00  7.134267530477414E+00 -3.504107167757788E-01
   1.795920374297546E-03  2.269702334736152E-03  1.082033156426955E-04
2451704.500000000 = A.D. 2000-Jun-09 00:00:00.0000 TDB 
   5.683918341950644E+00  7.154644842238069E+00 -3.512083073846403E-01
  -9.349417762859842E-03 -4.429274721610863E-04  2.523813478494554E-03
2451709.500000000 = A.D. 2000-Jun-14 00:00:00.0000 TDB 
   5.663905212576415E+00  7.170754209134586E+00 -3.503191149897525E-01
  -5.533359566126467E-03  9.291975635280950E-03 -2.713930914504783E-03
2451714.500000000 = A.D. 2000-Jun-19 00:00:00.0000 TDB 
   5.637629820081642E+00  7.186282970170853E+00 -3.485801039243676E-01
   1.037461612760238E-03  3.810593962115647E-04  1.109354686420421E-03
2451719.500000000 = A.D. 2000-Jun-24 00:00:00.0000 TDB 
   5.614330661711406E+00  7.206547017540479E+00 -3.495279294047415E-01
  -1.063262363529468E-02  1.202840582474933E-03  1.795390734173997E-03
2451724.500000000 = A.D. 2000-Jun-29 00:00:00.0000 TDB 
   5.593579596270887E+00  7.221536152672615E+00 -3.481153313805592E-01
  -3.353393509920616E-03  9.091313166212988E-03 -2.842080697651574E-03
2451729.500000000 = A.D. 2000-Jul-04 00:00:00.0000 TDB 
   5.566644942360917E+00  7.237843217485564E+00 -3.468168143265246E-01
  -3.794015355924588E-04 -1.159316754816176E-03  1.996744559362436E-03
2451734.500000000 = A.D. 2000-Jul-09 00:00:00.0000 TDB 
   5.544345783017468E+00  7.257631726253014E+00 -3.477308900086998E-01
  -1.123300458944626E-02  3.102122191870472E-03  8.734623842435415E-04
2451739.500000000 = A.D. 2000-Jul-14 00:00:00.0000 TDB 
   5.522544066090280E+00  7.271735934358266E+00 -3.458851114203753E-01
  -1.327207222629555E-03  8.237345185051146E-03 -2.624862404268452E-03
2451744.500000000 = A.D. 2000-Jul-19 00:00:00.0000 TDB 
   5.495342471790392E+00  7.288897851409623E+00 -3.451037391643798E-01
  -2.293352948067108E-03 -2.178499383789376E-03  2.666969057820108E-03
2451749.500000000 = A.D. 2000-Jul-24 00:00:00.0000 TDB 
   5.473895216271574E+00  7.307880059220342E+00 -3.458031899984593E-01
  -1.108336613058063E-02  5.031585144279293E-03 -1.346119352570542E-04
